<?xml version="1.0"?><gpx version="1.1" xmlns="http://www.topografix.com/GPX/1/1"><trk><name>GPXDRONE</name><trkseg><trkpt lat="54.66" lon="25.272"><ele>40</ele><time>2026-10-04T12:00:00Z</time></trkpt><trkpt lat="54.66019866933079" lon="25.271960133155684"><ele>41</ele><time>2026-10-04T12:00:03Z</time></trkpt><trkpt lat="54.660389418342305" lon="25.271842121988005"><ele>42</ele><time>2026-10-04T12:00:06Z</time></trkpt><trkpt lat="54.66056464247339" lon="25.271650671229818"><ele>43</ele><time>2026-10-04T12:00:09Z</time></trkpt><trkpt lat="54.6607173560909" lon="25.271393413418693"><ele>44</ele><time>2026-10-04T12:00:12Z</time></trkpt><trkpt lat="54.660841470984806" lon="25.271080604611736"><ele>45</ele><time>2026-10-04T12:00:15Z</time></trkpt><trkpt lat="54.660932039085964" lon="25.27072471550895"><ele>46</ele><time>2026-10-04T12:00:18Z</time></trkpt><trkpt lat="54.660985449729985" lon="25.2703399342858"><ele>47</ele><time>2026-10-04T12:00:21Z</time></trkpt><trkpt lat="54.660999573603036" lon="25.2699416009554"><ele>48</ele><time>2026-10-04T12:00:24Z</time></trkpt><trkpt lat="54.66097384763088" lon="25.269545595810612"><ele>49</ele><time>2026-10-04T12:00:27Z</time></trkpt><trkpt lat="54.66090929742682" lon="25.269167706326904"><ele>50</ele><time>2026-10-04T12:00:30Z</time></trkpt><trkpt lat="54.66080849640382" lon="25.26882299776549"><ele>51</ele><time>2026-10-04T12:00:33Z</time></trkpt><trkpt lat="54.660675463180546" lon="25.268525212568917"><ele>52</ele><time>2026-10-04T12:00:36Z</time></trkpt><trkpt lat="54.66051550137182" lon="25.268286222493263"><ele>53</ele><time>2026-10-04T12:00:39Z</time></trkpt><trkpt lat="54.660334988150154" lon="25.268115555318662"><ele>54</ele><time>2026-10-04T12:00:42Z</time></trkpt><trkpt lat="54.660141120008056" lon="25.268020015006798"><ele>55</ele><time>2026-10-04T12:00:45Z</time></trkpt><trkpt lat="54.65994162585657" lon="25.26800341044841"><ele>56</ele><time>2026-10-04T12:00:48Z</time></trkpt><trkpt lat="54.65974445889797" lon="25.268066403614842"><ele>57</ele><time>2026-10-04T12:00:51Z</time></trkpt><trkpt lat="54.6595574795567" lon="25.268206483167333"><ele>58</ele><time>2026-10-04T12:00:54Z</time></trkpt><trkpt lat="54.65938814210905" lon="25.26841806457617"><ele>59</ele><time>2026-10-04T12:00:57Z</time></trkpt><trkpt lat="54.659243197504686" lon="25.268692712758273"><ele>60</ele><time>2026-10-04T12:01:00Z</time></trkpt><trkpt lat="54.65912842422758" lon="25.26901947835732"><ele>61</ele><time>2026-10-04T12:01:03Z</time></trkpt><trkpt lat="54.65904839792611" lon="25.269385334260043"><ele>62</ele><time>2026-10-04T12:01:06Z</time></trkpt><trkpt lat="54.65900630899636" lon="25.26977569494613"><ele>63</ele><time>2026-10-04T12:01:09Z</time></trkpt><trkpt lat="54.65900383539116" lon="25.27017499796688"><ele>64</ele><time>2026-10-04T12:01:12Z</time></trkpt><trkpt lat="54.659041075725334" lon="25.270567324370926"><ele>65</ele><time>2026-10-04T12:01:15Z</time></trkpt><trkpt lat="54.659116545344276" lon="25.2709370333426"><ele>66</ele><time>2026-10-04T12:01:18Z</time></trkpt><trkpt lat="54.65922723551244" lon="25.271269385751886"><ele>67</ele><time>2026-10-04T12:01:21Z</time></trkpt><trkpt lat="54.65936873336212" lon="25.271551131757022"><ele>68</ele><time>2026-10-04T12:01:24Z</time></trkpt><trkpt lat="54.659535397820584" lon="25.271771039033883"><ele>69</ele><time>2026-10-04T12:01:27Z</time></trkpt></trkseg></trk></gpx>